[{"OBJECT_NAME":"QIANFAN-39","OBJECT_ID":"2024-232D","EPOCH":"2026-03-09T21:25:16.059072","MEAN_MOTION":14.25440879,"ECCENTRICITY":0.00171102,"INCLINATION":89.0064,"RA_OF_ASC_NODE":27.3413,"ARG_OF_PERICENTER":145.5992,"MEAN_ANOMALY":214.6313,"EPHEMERIS_TYPE":0,"CLASSIFICATION_TYPE":"U","NORAD_CAT_ID":62240,"ELEMENT_SET_NO":999,"REV_AT_EPOCH":11380,"BSTAR":0.00022622412,"MEAN_MOTION_DOT":5.49e-6,"MEAN_MOTION_DDOT":0},{"OBJECT_NAME":"FENGYUN 1C DEB","OBJECT_ID":"1999-025WB","EPOCH":"2026-03-09T04:50:19.032288","MEAN_MOTION":14.30008783,"ECCENTRICITY":0.00663033,"INCLINATION":98.9795,"RA_OF_ASC_NODE":165.248,"ARG_OF_PERICENTER":5.0306,"MEAN_ANOMALY":24.6881,"EPHEMERIS_TYPE":0,"CLASSIFICATION_TYPE":"U","NORAD_CAT_ID":30218,"ELEMENT_SET_NO":999,"REV_AT_EPOCH":98344,"BSTAR":0.0020949461,"MEAN_MOTION_DOT":5.493e-5,"MEAN_MOTION_DDOT":0}]
